ONEWEB-0387             
1 49313U 21090AL  25142.08282222  .00000113  00000+0  24518-3 0  9999
2 49313  87.9256 352.3748 0002113  80.2563 279.8809 13.20769955179504
ONEWEB-0388             
1 49314U 21090AM  25141.58665707 -.00000080  00000+0 -23156-3 0  9999
2 49314  87.9246  22.8287 0001838  76.9185 283.2153 13.19725232174768
ONEWEB-0389             
1 50469U 21132A   25141.59588780  .00000077  00000+0  16508-3 0  9992
2 50469  87.9060  83.8406 0002385  72.7303 287.4089 13.17647191166512
ONEWEB-0390             
1 50470U 21132B   25141.90131231  .00000053  00000+0  10323-3 0  9997
2 50470  87.9062  83.7866 0002265  85.9893 274.1498 13.17650897167843
ONEWEB-0391             
1 50471U 21132C   25141.82706816  .00000027  00000+0  35508-4 0  9990
2 50471  87.9070  83.8121 0002905  73.9679 286.1772 13.17647449167834
ONEWEB-0392             
1 50472U 21132D   25141.55369488  .00000050  00000+0  95973-4 0  9999
2 50472  87.9055  83.8179 0002424  74.5949 285.5450 13.17647617166544
ONEWEB-0393             
1 50473U 21132E   25141.60276961  .00000051  00000+0  98815-4 0  9998
2 50473  87.9065  83.8193 0002229  78.0082 282.1299 13.17647463166545
ONEWEB-0394             
1 50474U 21132F   25141.49925103  .00000044  00000+0  79815-4 0  9996
2 50474  87.9153  53.2828 0002023  75.0423 285.0933 13.18684245169975
